TANSTAAFL-2             
1 62378U 24247B   26067.20753490  .00013897  00000+0  50872-3 0  9998
2 62378  44.9880 125.0934 0003072 298.8909  61.1666 15.28016845 67506
STARLINK-34841          
1 65208U 25176L   26068.52239512  .00024585  00000+0  83957-3 0  9991
2 65208  53.1573 153.5940 0001331  48.4700 311.6415 15.30194917 33091
